     2.11           N: GPS NAV DATA                         RINEX VERSION / TYPE
teqc  2018Dec12     gpsops              20220512 01:04:13UTCPGM / RUN BY / DATE
Linux 2.6.32-573.12.1.x86_64|x86_64|gcc -static|Linux 64|=+ COMMENT
CHPI                                    MARKER NAME         COMMENT
41609M003                               MARKER NUMBER       COMMENT
4164613.9484 -4162456.9866 -2445028.7316                    COMMENT
                                                            COMMENT
This data is provided as a public service by NASA/JPL.      COMMENT
No warranty is expressed or implied regarding suitability   COMMENT
for use.  For further information, contact:                 COMMENT
Dave Stowers, NASA/JPL m/s 238-600                          COMMENT
4800 Oak Grove Drive, Pasadena CA 91109 USA                 COMMENT
                                                            END OF HEADER
31 22  5 11  6  0  0.0-1.771226525307D-04-1.591615728103D-12 0.000000000000D+00
    8.400000000000D+01 4.550000000000D+01 4.742697552390D-09-2.598052861159D-01
    2.337619662285D-06 1.043101039249D-02 9.709969162941D-06 5.153734672546D+03
    2.808000000000D+05 1.117587089539D-07-2.614277910026D-01 1.378357410431D-07
    9.553560842442D-01 1.887187500000D+02 3.893553834717D-01-8.235343035093D-09
    1.282196265764D-10 1.000000000000D+00 2.209000000000D+03 0.000000000000D+00
    2.000000000000D+00 0.000000000000D+00-1.350417733192D-08 8.400000000000D+01
    2.736180000000D+05 4.000000000000D+00
24 22  5 11  6  0  0.0 2.431315369904D-04-6.593836587854D-12 0.000000000000D+00
    5.000000000000D+00 3.656250000000D+01 5.223789020352D-09 1.180336176848D+00
    2.101063728333D-06 1.246058184188D-02 1.029111444950D-05 5.153692348480D+03
    2.808000000000D+05-1.732259988785D-07-3.639809026142D-01 1.732259988785D-07
    9.345939895225D-01 1.696250000000D+02 8.143494058129D-01-8.474995874739D-09
    6.785996949726D-12 1.000000000000D+00 2.209000000000D+03 0.000000000000D+00
    2.000000000000D+00 0.000000000000D+00 2.793967723846D-09 5.000000000000D+00
    2.736180000000D+05 4.000000000000D+00
23 22  5 11  6  0  0.0-2.108979970217D-05-2.501110429876D-12 0.000000000000D+00
    1.410000000000D+02-2.071875000000D+01 4.717339353262D-09 1.264304099226D-01
   -9.890645742416D-07 2.114900853485D-03 4.386529326439D-06 5.153705823898D+03
    2.808000000000D+05-9.313225746155D-09-2.407704887601D+00-4.284083843231D-08
    9.684793591098D-01 2.988125000000D+02 3.001358998627D+00-8.292131114830D-09
    2.139374827835D-10 1.000000000000D+00 2.209000000000D+03 0.000000000000D+00
    2.000000000000D+00 0.000000000000D+00-8.381903171539D-09 9.090000000000D+02
    2.736180000000D+05 4.000000000000D+00
15 22  5 11  6  0  0.0-6.217323243618D-05 2.955857780762D-12 0.000000000000D+00
    7.300000000000D+01-7.550000000000D+01 5.344865492244D-09 2.103423035624D+00
   -4.112720489502D-06 1.403032569215D-02 7.918104529381D-06 5.153786451340D+03
    2.808000000000D+05-5.587935447693D-08-1.459949205522D+00-3.147870302200D-07
    9.299056940304D-01 2.123437500000D+02 1.090451539352D+00-8.280344909602D-09
   -1.550064566411D-10 1.000000000000D+00 2.209000000000D+03 0.000000000000D+00
    2.000000000000D+00 0.000000000000D+00-1.071020960808D-08 7.300000000000D+01
    2.736180000000D+05 4.000000000000D+00
26 22  5 11  6  0  0.0 2.048099413514D-04 2.614797267597D-12 0.000000000000D+00
    1.200000000000D+01 3.087500000000D+01 5.252718796822D-09-1.376041567072D+00
    1.631677150726D-06 6.927466834895D-03 4.751607775688D-06 5.153741220474D+03
    2.808000000000D+05 9.499490261078D-08 7.066219295483D-01-1.452863216400D-07
    9.378488110874D-01 2.769375000000D+02 3.896963604176D-01-8.493210919183D-09
   -1.039329006511D-10 1.000000000000D+00 2.209000000000D+03 0.000000000000D+00
    2.000000000000D+00 0.000000000000D+00 6.984919309616D-09 1.200000000000D+01
    2.757720000000D+05 4.000000000000D+00
10 22  5 11  6  0  0.0-4.100971855223D-04-1.421085471520D-11 0.000000000000D+00
    7.800000000000D+01-2.168750000000D+01 4.587333938015D-09-1.159217911313D+00
   -1.002103090286D-06 7.580268080346D-03 4.164874553680D-06 5.153678283691D+03
    2.808000000000D+05 1.024454832077D-07-2.382418958638D+00 2.607703208923D-08
    9.733877740336D-01 3.020937500000D+02-2.493234151724D+00-8.241771874309D-09
    2.314382117591D-10 1.000000000000D+00 2.209000000000D+03 0.000000000000D+00
    2.000000000000D+00 0.000000000000D+00 2.328306436539D-09 7.800000000000D+01
    2.776560000000D+05 4.000000000000D+00
13 22  5 11  6  0  0.0 3.094826824963D-04 6.821210263297D-12 0.000000000000D+00
    2.400000000000D+01-5.346875000000D+01 4.364824669610D-09 2.628962901143D+00
   -2.838671207428D-06 5.898337112740D-03 9.734183549881D-06 5.153678539276D+03
    2.808000000000D+05-2.793967723846D-08-1.197365217696D+00-9.313225746155D-08
    9.684240973794D-01 1.962500000000D+02 9.208001305643D-01-7.779966923993D-09
   -1.610781381224D-10 1.000000000000D+00 2.209000000000D+03 0.000000000000D+00
    2.000000000000D+00 0.000000000000D+00-1.164153218269D-08 2.400000000000D+01
    2.788980000000D+05 4.000000000000D+00
16 22  5 11  6  0  0.0-4.998268559575D-04-3.296918293927D-12 0.000000000000D+00
    1.300000000000D+01 2.021875000000D+01 4.524117019062D-09-2.267807346844D+00
    1.041218638420D-06 1.274000643753D-02 4.775822162628D-06 5.153642021179D+03
    2.808000000000D+05 8.195638656616D-08 8.515369048101D-01-9.313225746155D-08
    9.693450920854D-01 2.921250000000D+02 7.285281622593D-01-8.022119867778D-09
   -7.607459738377D-11 1.000000000000D+00 2.209000000000D+03 0.000000000000D+00
    2.000000000000D+00 0.000000000000D+00-1.024454832077D-08 1.300000000000D+01
    2.802720000000D+05 4.000000000000D+00
23 22  5 11  8  0  0.0-2.110796049237D-05-2.501110429876D-12 0.000000000000D+00
    1.420000000000D+02-1.234375000000D+01 4.611620663940D-09 1.176195349189D+00
   -7.171183824539D-07 2.115848823451D-03 4.285946488380D-06 5.153708215714D+03
    2.880000000000D+05 1.862645149231D-08-2.407764273298D+00 1.862645149231D-09
    9.684810268364D-01 3.023125000000D+02 3.001755682030D+00-8.247486398056D-09
    2.003654888840D-10 1.000000000000D+00 2.209000000000D+03 0.000000000000D+00
    2.000000000000D+00 0.000000000000D+00-8.381903171539D-09 9.100000000000D+02
    2.808180000000D+05 4.000000000000D+00
18 22  5 11  8  0  0.0 1.731645315886D-04-1.000444171950D-11 0.000000000000D+00
    1.060000000000D+02 3.531250000000D+01 4.040168289226D-09 2.250397723470D+00
    1.862645149231D-06 2.291355165653D-03 8.417293429375D-06 5.153608842850D+03
    2.880000000000D+05-4.284083843231D-08 2.876307715224D+00 2.421438694000D-08
    9.717332034455D-01 2.218125000000D+02 3.040469683378D+00-7.892828767999D-09
    2.621537768999D-10 1.000000000000D+00 2.209000000000D+03 0.000000000000D+00
    2.000000000000D+00 0.000000000000D+00-8.381903171539D-09 6.180000000000D+02
    2.808180000000D+05 4.000000000000D+00
25 22  5 11  8  0  0.0 3.232387825847D-04 4.888534022029D-12 0.000000000000D+00
    9.200000000000D+01 2.790625000000D+01 5.000565436479D-09 3.407176934253D-01
    1.559033989906D-06 1.051953132264D-02 4.800036549568D-06 5.153671264648D+03
    2.880000000000D+05-7.264316082001D-08 7.551444264993D-01 9.313225746155D-08
    9.569822961653D-01 2.836250000000D+02 1.003141694730D+00-8.579643090858D-09
   -1.875078104529D-10 1.000000000000D+00 2.209000000000D+03 0.000000000000D+00
    2.000000000000D+00 0.000000000000D+00 5.587935447693D-09 9.200000000000D+01
    2.808180000000D+05 4.000000000000D+00
29 22  5 11  8  0  0.0-5.124225281179D-04-3.979039320257D-12 0.000000000000D+00
    4.500000000000D+01-1.928125000000D+01 3.905876981168D-09-2.024858450911D+00
   -1.035630702972D-06 2.139947260730D-03 8.530914783478D-06 5.153712110519D+03
    2.880000000000D+05-1.490116119385D-08 1.884490618564D+00 6.146728992462D-08
    9.808133311550D-01 2.260000000000D+02 2.252398284424D+00-7.819254274755D-09
   -3.493002640438D-10 1.000000000000D+00 2.209000000000D+03 0.000000000000D+00
    2.000000000000D+00 0.000000000000D+00-1.024454832077D-08 4.500000000000D+01
    2.808180000000D+05 4.000000000000D+00
26 22  5 11  8  0  0.0 2.048285678029D-04 2.614797267597D-12 0.000000000000D+00
    4.700000000000D+01 2.875000000000D+01 5.414868408147D-09-3.258569853657D-01
    1.400709152222D-06 6.927667302079D-03 4.528090357780D-06 5.153741859436D+03
    2.880000000000D+05 5.029141902924D-08 7.065606947233D-01 7.078051567078D-08
    9.378469063681D-01 2.780937500000D+02 3.896565953784D-01-8.703219666890D-09
   -1.860791795162D-10 1.000000000000D+00 2.209000000000D+03 0.000000000000D+00
    2.000000000000D+00 0.000000000000D+00 6.984919309616D-09 4.700000000000D+01
    2.808180000000D+05 4.000000000000D+00
10 22  5 11  8  0  0.0-4.101996310055D-04-1.421085471520D-11 0.000000000000D+00
    8.100000000000D+01-1.825000000000D+01 4.548046587253D-09-1.090557034764D-01
   -8.344650268555D-07 7.580487756059D-03 4.425644874573D-06 5.153678482056D+03
    2.880000000000D+05 3.911554813385D-08-2.382478537440D+00 8.195638656616D-08
    9.733890891969D-01 3.027187500000D+02-2.493217663175D+00-8.307846055135D-09
    2.185805333280D-10 1.000000000000D+00 2.209000000000D+03 0.000000000000D+00
    2.000000000000D+00 0.000000000000D+00 2.328306436539D-09 8.100000000000D+01
    2.808180000000D+05 4.000000000000D+00
15 22  5 11  8  0  0.0-6.215181201696D-05 2.955857780762D-12 0.000000000000D+00
    1.010000000000D+02-8.218750000000D+01 5.338436653029D-09-3.129633931735D+00
   -4.455447196960D-06 1.403112767730D-02 7.741153240204D-06 5.153785024643D+03
    2.880000000000D+05 1.024454832077D-07-1.460008346911D+00-2.346932888031D-07
    9.299047987246D-01 2.138125000000D+02 1.090441129227D+00-8.217842306118D-09
   -1.410773050075D-10 1.000000000000D+00 2.209000000000D+03 0.000000000000D+00
    2.000000000000D+00 0.000000000000D+00-1.071020960808D-08 1.010000000000D+02
    2.808180000000D+05 4.000000000000D+00
